{
  "norad_id": 56808,
  "name": "STARLINK-6042",
  "history": [
    {
      "epoch": "2026-03-28T18:16:06.424608Z",
      "apogee_km": 573.8285053273794,
      "perigee_km": 570.2676475053277,
      "latitude_deg": 3.702623746836057e-05,
      "longitude_deg": 126.24564969588899,
      "height_km": 574.4175698246186,
      "semi_major_axis_km": 6950.185076416353,
      "eccentricity": 0.00025617,
      "inclination_deg": 70.0001,
      "raan_deg": 226.4494,
      "arg_perigee_deg": 271.8511,
      "mean_anomaly_deg": 88.2355,
      "mean_motion_rev_day": 14.98332527
    },
    {
      "epoch": "2026-03-29T03:52:54.366240Z",
      "apogee_km": 573.8730079117322,
      "perigee_km": 570.1935877560591,
      "latitude_deg": 2.8541958828182304e-05,
      "longitude_deg": -19.35841509144531,
      "height_km": 574.4501211225609,
      "semi_major_axis_km": 6950.170297833895,
      "eccentricity": 0.0002647,
      "inclination_deg": 70.0,
      "raan_deg": 225.4399,
      "arg_perigee_deg": 270.3201,
      "mean_anomaly_deg": 89.7655,
      "mean_motion_rev_day": 14.98337306
    },
    {
      "epoch": "2026-03-30T02:18:46.927008Z",
      "apogee_km": 573.6601289150067,
      "perigee_km": 570.4364939638563,
      "latitude_deg": -2.80376886019242e-05,
      "longitude_deg": 0.8943423688254045,
      "height_km": 574.4516285109572,
      "semi_major_axis_km": 6950.185311439432,
      "eccentricity": 0.00023191,
      "inclination_deg": 70.0008,
      "raan_deg": 223.0829,
      "arg_perigee_deg": 270.8351,
      "mean_anomaly_deg": 89.2542,
      "mean_motion_rev_day": 14.98332451
    },
    {
      "epoch": "2026-03-30T15:07:52.442112Z",
      "apogee_km": 574.1548878902913,
      "perigee_km": 570.0158914527938,
      "latitude_deg": 2.695557306867142e-06,
      "longitude_deg": 166.74794979809926,
      "height_km": 574.4440671461502,
      "semi_major_axis_km": 6950.222389671542,
      "eccentricity": 0.00029776,
      "inclination_deg": 69.9995,
      "raan_deg": 221.7359,
      "arg_perigee_deg": 271.9023,
      "mean_anomaly_deg": 88.1795,
      "mean_motion_rev_day": 14.98320461
    },
    {
      "epoch": "2026-03-30T18:20:08.658240Z",
      "apogee_km": 574.0755202641585,
      "perigee_km": 570.1008254922926,
      "latitude_deg": -3.3414235437591476e-05,
      "longitude_deg": 118.21286535863581,
      "height_km": 574.5248564943054,
      "semi_major_axis_km": 6950.225172878226,
      "eccentricity": 0.00028594,
      "inclination_deg": 70.0,
      "raan_deg": 221.4,
      "arg_perigee_deg": 269.7297,
      "mean_anomaly_deg": 90.3534,
      "mean_motion_rev_day": 14.98319561
    },
    {
      "epoch": "2026-03-31T08:45:20.919744Z",
      "apogee_km": 574.1352924868406,
      "perigee_km": 569.9605943987135,
      "latitude_deg": 5.9124669184281025e-06,
      "longitude_deg": -100.19522056081301,
      "height_km": 574.4284595463458,
      "semi_major_axis_km": 6950.184943442777,
      "eccentricity": 0.00030033,
      "inclination_deg": 69.9996,
      "raan_deg": 219.8852,
      "arg_perigee_deg": 271.2877,
      "mean_anomaly_deg": 88.7938,
      "mean_motion_rev_day": 14.9833257
    },
    {
      "epoch": "2026-04-01T15:11:54.590208Z",
      "apogee_km": 574.2765478115298,
      "perigee_km": 569.8728936652706,
      "latitude_deg": -5.856720496095557e-07,
      "longitude_deg": 158.71594846083536,
      "height_km": 574.482271479095,
      "semi_major_axis_km": 6950.2117207384,
      "eccentricity": 0.0003168,
      "inclination_deg": 70.0012,
      "raan_deg": 216.6869,
      "arg_perigee_deg": 270.5242,
      "mean_anomaly_deg": 89.5554,
      "mean_motion_rev_day": 14.98323911
    },
    {
      "epoch": "2026-04-02T18:26:10.744224Z",
      "apogee_km": 574.1937388172573,
      "perigee_km": 569.8040329917194,
      "latitude_deg": -2.198025355109724e-05,
      "longitude_deg": 106.16811576344341,
      "height_km": 574.3782192359511,
      "semi_major_axis_km": 6950.135885904488,
      "eccentricity": 0.0003158,
      "inclination_deg": 70.0014,
      "raan_deg": 213.825,
      "arg_perigee_deg": 271.2633,
      "mean_anomaly_deg": 88.8164,
      "mean_motion_rev_day": 14.98348434
    },
    {
      "epoch": "2026-04-02T18:26:10.745088Z",
      "apogee_km": 574.1935303131804,
      "perigee_km": 569.8042414957954,
      "latitude_deg": -2.523040246061777e-05,
      "longitude_deg": 106.16811097717903,
      "height_km": 574.3782238339253,
      "semi_major_axis_km": 6950.135885904488,
      "eccentricity": 0.00031577,
      "inclination_deg": 70.0014,
      "raan_deg": 213.825,
      "arg_perigee_deg": 271.2633,
      "mean_anomaly_deg": 88.8164,
      "mean_motion_rev_day": 14.98348434
    },
    {
      "epoch": "2026-04-03T16:52:03.882144Z",
      "apogee_km": 574.0521219847715,
      "perigee_km": 570.0460347292073,
      "latitude_deg": 2.8326082386561426e-05,
      "longitude_deg": 126.42040009996258,
      "height_km": 574.6232122035457,
      "semi_major_axis_km": 6950.186078356989,
      "eccentricity": 0.0002882,
      "inclination_deg": 70.0021,
      "raan_deg": 211.4699,
      "arg_perigee_deg": 265.8019,
      "mean_anomaly_deg": 94.2811,
      "mean_motion_rev_day": 14.98332203
    },
    {
      "epoch": "2026-04-04T16:54:04.563072Z",
      "apogee_km": 574.0747070935304,
      "perigee_km": 569.9949562283455,
      "latitude_deg": 7.5753625971254796e-06,
      "longitude_deg": 122.40583300199164,
      "height_km": 574.6330642361427,
      "semi_major_axis_km": 6950.171831660938,
      "eccentricity": 0.0002935,
      "inclination_deg": 70.0008,
      "raan_deg": 208.9452,
      "arg_perigee_deg": 265.198,
      "mean_anomaly_deg": 94.8844,
      "mean_motion_rev_day": 14.9833681
    },
    {
      "epoch": "2026-04-05T13:43:50.212416Z",
      "apogee_km": 574.2575000169918,
      "perigee_km": 569.911943387714,
      "latitude_deg": -4.349867806674116e-05,
      "longitude_deg": 166.9213767221246,
      "height_km": 574.6433657503976,
      "semi_major_axis_km": 6950.221721702353,
      "eccentricity": 0.00031262,
      "inclination_deg": 70.0003,
      "raan_deg": 206.7564,
      "arg_perigee_deg": 266.5425,
      "mean_anomaly_deg": 93.5376,
      "mean_motion_rev_day": 14.98320677
    },
    {
      "epoch": "2026-04-05T16:56:06.385344Z",
      "apogee_km": 574.2297016538123,
      "perigee_km": 569.9302974179,
      "latitude_deg": -1.2639761929399124e-05,
      "longitude_deg": 118.38599662340903,
      "height_km": 574.6242675715303,
      "semi_major_axis_km": 6950.216999535855,
      "eccentricity": 0.0003093,
      "inclination_deg": 70.0005,
      "raan_deg": 206.42,
      "arg_perigee_deg": 266.8886,
      "mean_anomaly_deg": 93.1919,
      "mean_motion_rev_day": 14.98322204
    },
    {
      "epoch": "2026-04-06T07:21:18.650304Z",
      "apogee_km": 574.2672749640851,
      "perigee_km": 569.8566786933898,
      "latitude_deg": 1.772362295029823e-05,
      "longitude_deg": -100.02250905288373,
      "height_km": 574.5893466357417,
      "semi_major_axis_km": 6950.198976828737,
      "eccentricity": 0.0003173,
      "inclination_deg": 70.0002,
      "raan_deg": 204.9048,
      "arg_perigee_deg": 267.4082,
      "mean_anomaly_deg": 92.6714,
      "mean_motion_rev_day": 14.98328032
    },
    {
      "epoch": "2026-04-07T13:47:49.685568Z",
      "apogee_km": 574.2639082586575,
      "perigee_km": 569.730752642965,
      "latitude_deg": 4.11919910194465e-05,
      "longitude_deg": 158.90037579887476,
      "height_km": 574.5032380449674,
      "semi_major_axis_km": 6950.134330450811,
      "eccentricity": 0.00032612,
      "inclination_deg": 70.0006,
      "raan_deg": 201.7072,
      "arg_perigee_deg": 268.0246,
      "mean_anomaly_deg": 92.054,
      "mean_motion_rev_day": 14.98348937
    },
    {
      "epoch": "2026-04-07T17:00:05.528448Z",
      "apogee_km": 574.2047874343552,
      "perigee_km": 569.7747766234897,
      "latitude_deg": -9.370735660918198e-06,
      "longitude_deg": 110.36594504049526,
      "height_km": 574.4998488536389,
      "semi_major_axis_km": 6950.126782028922,
      "eccentricity": 0.0003187,
      "inclination_deg": 70.0005,
      "raan_deg": 201.3704,
      "arg_perigee_deg": 267.8691,
      "mean_anomaly_deg": 92.2103,
      "mean_motion_rev_day": 14.98351378
    },
    {
      "epoch": "2026-04-08T13:49:52.492800Z",
      "apogee_km": 573.5058542805,
      "perigee_km": 570.6412554981962,
      "latitude_deg": 1.0623896345282423e-05,
      "longitude_deg": 154.87661895475168,
      "height_km": 574.4996630342782,
      "semi_major_axis_km": 6950.210554889348,
      "eccentricity": 0.00020608,
      "inclination_deg": 70.0034,
      "raan_deg": 199.1822,
      "arg_perigee_deg": 270.0237,
      "mean_anomaly_deg": 90.0686,
      "mean_motion_rev_day": 14.98324288
    },
    {
      "epoch": "2026-04-09T12:15:45.093312Z",
      "apogee_km": 574.1208045651738,
      "perigee_km": 569.9632074837691,
      "latitude_deg": -2.680606255343556e-05,
      "longitude_deg": 175.13021396219762,
      "height_km": 574.4559817140173,
      "semi_major_axis_km": 6950.179006024471,
      "eccentricity": 0.0002991,
      "inclination_deg": 70.0006,
      "raan_deg": 196.8262,
      "arg_perigee_deg": 270.3726,
      "mean_anomaly_deg": 89.709,
      "mean_motion_rev_day": 14.9833449
    },
    {
      "epoch": "2026-04-10T07:29:21.765408Z",
      "apogee_km": 574.1346444966302,
      "perigee_km": 570.0146980221416,
      "latitude_deg": -3.782901978566112e-05,
      "longitude_deg": -116.081811404399,
      "height_km": 574.476280096744,
      "semi_major_axis_km": 6950.211671259386,
      "eccentricity": 0.00029639,
      "inclination_deg": 70.0006,
      "raan_deg": 194.8066,
      "arg_perigee_deg": 270.7189,
      "mean_anomaly_deg": 89.363,
      "mean_motion_rev_day": 14.98323927
    }
  ]
}